[{"OBJECT_NAME":"STARLINK-36247","OBJECT_ID":"2026-054P","EPOCH":"2026-04-05T05:38:53.373408","MEAN_MOTION":15.80935985,"ECCENTRICITY":8.557e-5,"INCLINATION":53.1585,"RA_OF_ASC_NODE":179.5341,"ARG_OF_PERICENTER":53.107,"MEAN_ANOMALY":307.0031,"EPHEMERIS_TYPE":0,"CLASSIFICATION_TYPE":"U","NORAD_CAT_ID":68245,"ELEMENT_SET_NO":999,"REV_AT_EPOCH":297,"BSTAR":0.0010805422,"MEAN_MOTION_DOT":0.00218687,"MEAN_MOTION_DDOT":0},{"OBJECT_NAME":"STARLINK-37043","OBJECT_ID":"2026-054Q","EPOCH":"2026-04-05T05:36:43.399296","MEAN_MOTION":15.80939515,"ECCENTRICITY":0.00012052,"INCLINATION":53.1587,"RA_OF_ASC_NODE":179.5243,"ARG_OF_PERICENTER":67.9537,"MEAN_ANOMALY":292.1613,"EPHEMERIS_TYPE":0,"CLASSIFICATION_TYPE":"U","NORAD_CAT_ID":68246,"ELEMENT_SET_NO":999,"REV_AT_EPOCH":297,"BSTAR":0.0010905994,"MEAN_MOTION_DOT":0.00220819,"MEAN_MOTION_DDOT":0},{"OBJECT_NAME":"STARLINK-37044","OBJECT_ID":"2026-054R","EPOCH":"2026-04-03T15:39:46.990944","MEAN_MOTION":15.80565943,"ECCENTRICITY":0.00020442,"INCLINATION":53.1589,"RA_OF_ASC_NODE":187.4393,"ARG_OF_PERICENTER":60.6198,"MEAN_ANOMALY":299.5029,"EPHEMERIS_TYPE":0,"CLASSIFICATION_TYPE":"U","NORAD_CAT_ID":68247,"ELEMENT_SET_NO":999,"REV_AT_EPOCH":272,"BSTAR":-0.00065001386,"MEAN_MOTION_DOT":-0.00125387,"MEAN_MOTION_DDOT":0},{"OBJECT_NAME":"STARLINK-36997","OBJECT_ID":"2026-054S","EPOCH":"2026-04-05T06:13:47.896032","MEAN_MOTION":15.75298507,"ECCENTRICITY":0.000163,"INCLINATION":53.1589,"RA_OF_ASC_NODE":179.6948,"ARG_OF_PERICENTER":63.7194,"MEAN_ANOMALY":296.3994,"EPHEMERIS_TYPE":0,"CLASSIFICATION_TYPE":"U","NORAD_CAT_ID":68248,"ELEMENT_SET_NO":999,"REV_AT_EPOCH":297,"BSTAR":0.0013696489,"MEAN_MOTION_DOT":0.002153,"MEAN_MOTION_DDOT":0},{"OBJECT_NAME":"STARLINK-37141","OBJECT_ID":"2026-054T","EPOCH":"2026-04-05T05:54:11.164320","MEAN_MOTION":15.75285187,"ECCENTRICITY":0.00012088,"INCLINATION":53.158,"RA_OF_ASC_NODE":179.6046,"ARG_OF_PERICENTER":95.1356,"MEAN_ANOMALY":264.9803,"EPHEMERIS_TYPE":0,"CLASSIFICATION_TYPE":"U","NORAD_CAT_ID":68249,"ELEMENT_SET_NO":999,"REV_AT_EPOCH":297,"BSTAR":0.0012055244,"MEAN_MOTION_DOT":0.00188712,"MEAN_MOTION_DDOT":0},{"OBJECT_NAME":"STARLINK-37087","OBJECT_ID":"2026-054U","EPOCH":"2026-04-05T06:01:11.540064","MEAN_MOTION":15.75310092,"ECCENTRICITY":0.00013828,"INCLINATION":53.1578,"RA_OF_ASC_NODE":179.6367,"ARG_OF_PERICENTER":42.8866,"MEAN_ANOMALY":317.2262,"EPHEMERIS_TYPE":0,"CLASSIFICATION_TYPE":"U","NORAD_CAT_ID":68250,"ELEMENT_SET_NO":999,"REV_AT_EPOCH":297,"BSTAR":0.0013902797,"MEAN_MOTION_DOT":0.00218753,"MEAN_MOTION_DDOT":0},{"OBJECT_NAME":"STARLINK-36274","OBJECT_ID":"2026-054V","EPOCH":"2026-04-05T06:07:43.555872","MEAN_MOTION":15.75320993,"ECCENTRICITY":0.00013029,"INCLINATION":53.1585,"RA_OF_ASC_NODE":179.6669,"ARG_OF_PERICENTER":124.2137,"MEAN_ANOMALY":235.9007,"EPHEMERIS_TYPE":0,"CLASSIFICATION_TYPE":"U","NORAD_CAT_ID":68251,"ELEMENT_SET_NO":999,"REV_AT_EPOCH":297,"BSTAR":0.00139321,"MEAN_MOTION_DOT":0.00219335,"MEAN_MOTION_DDOT":0},{"OBJECT_NAME":"STARLINK-37085","OBJECT_ID":"2026-054W","EPOCH":"2026-04-05T05:30:14.682240","MEAN_MOTION":15.80943652,"ECCENTRICITY":9.99e-5,"INCLINATION":53.1589,"RA_OF_ASC_NODE":179.493,"ARG_OF_PERICENTER":104.0766,"MEAN_ANOMALY":256.0368,"EPHEMERIS_TYPE":0,"CLASSIFICATION_TYPE":"U","NORAD_CAT_ID":68252,"ELEMENT_SET_NO":999,"REV_AT_EPOCH":297,"BSTAR":0.0011242301,"MEAN_MOTION_DOT":0.00227882,"MEAN_MOTION_DDOT":0},{"OBJECT_NAME":"STARLINK-37086","OBJECT_ID":"2026-054X","EPOCH":"2026-04-05T05:29:10.139712","MEAN_MOTION":15.80935742,"ECCENTRICITY":0.00011357,"INCLINATION":53.1588,"RA_OF_ASC_NODE":179.4889,"ARG_OF_PERICENTER":117.6053,"MEAN_ANOMALY":242.5085,"EPHEMERIS_TYPE":0,"CLASSIFICATION_TYPE":"U","NORAD_CAT_ID":68253,"ELEMENT_SET_NO":999,"REV_AT_EPOCH":297,"BSTAR":0.001361798,"MEAN_MOTION_DOT":0.00277701,"MEAN_MOTION_DDOT":0},{"OBJECT_NAME":"STARLINK-37084","OBJECT_ID":"2026-054Y","EPOCH":"2026-04-05T03:55:58.350720","MEAN_MOTION":15.80927469,"ECCENTRICITY":0.0002705,"INCLINATION":53.1588,"RA_OF_ASC_NODE":179.7955,"ARG_OF_PERICENTER":23.089,"MEAN_ANOMALY":337.0254,"EPHEMERIS_TYPE":0,"CLASSIFICATION_TYPE":"U","NORAD_CAT_ID":68254,"ELEMENT_SET_NO":999,"REV_AT_EPOCH":296,"BSTAR":0.0015395096,"MEAN_MOTION_DOT":0.00315309,"MEAN_MOTION_DDOT":0},{"OBJECT_NAME":"STARLINK-37075","OBJECT_ID":"2026-054Z","EPOCH":"2026-04-05T05:28:04.315872","MEAN_MOTION":15.80872727,"ECCENTRICITY":0.00011607,"INCLINATION":53.1587,"RA_OF_ASC_NODE":179.4836,"ARG_OF_PERICENTER":84.2383,"MEAN_ANOMALY":275.8772,"EPHEMERIS_TYPE":0,"CLASSIFICATION_TYPE":"U","NORAD_CAT_ID":68255,"ELEMENT_SET_NO":999,"REV_AT_EPOCH":297,"BSTAR":0.001568501,"MEAN_MOTION_DOT":0.00320643,"MEAN_MOTION_DDOT":0},{"OBJECT_NAME":"STARLINK-36333","OBJECT_ID":"2026-054AA","EPOCH":"2026-04-05T03:54:53.227584","MEAN_MOTION":15.80941554,"ECCENTRICITY":0.00019485,"INCLINATION":53.1586,"RA_OF_ASC_NODE":179.7904,"ARG_OF_PERICENTER":22.9268,"MEAN_ANOMALY":337.1842,"EPHEMERIS_TYPE":0,"CLASSIFICATION_TYPE":"U","NORAD_CAT_ID":68256,"ELEMENT_SET_NO":999,"REV_AT_EPOCH":296,"BSTAR":0.0015110922,"MEAN_MOTION_DOT":0.00309453,"MEAN_MOTION_DDOT":0},{"OBJECT_NAME":"STARLINK-36745","OBJECT_ID":"2026-054AB","EPOCH":"2026-04-05T05:54:39.424896","MEAN_MOTION":15.75313646,"ECCENTRICITY":0.0001985,"INCLINATION":53.1579,"RA_OF_ASC_NODE":179.6059,"ARG_OF_PERICENTER":37.126,"MEAN_ANOMALY":322.9897,"EPHEMERIS_TYPE":0,"CLASSIFICATION_TYPE":"U","NORAD_CAT_ID":68257,"ELEMENT_SET_NO":999,"REV_AT_EPOCH":297,"BSTAR":0.0013769409,"MEAN_MOTION_DOT":0.0021663,"MEAN_MOTION_DDOT":0},{"OBJECT_NAME":"STARLINK-36890","OBJECT_ID":"2026-054AC","EPOCH":"2026-04-05T05:22:40.974240","MEAN_MOTION":15.80957165,"ECCENTRICITY":0.00010676,"INCLINATION":53.1586,"RA_OF_ASC_NODE":179.458,"ARG_OF_PERICENTER":78.9151,"MEAN_ANOMALY":281.1992,"EPHEMERIS_TYPE":0,"CLASSIFICATION_TYPE":"U","NORAD_CAT_ID":68258,"ELEMENT_SET_NO":999,"REV_AT_EPOCH":297,"BSTAR":0.0016786356,"MEAN_MOTION_DOT":0.00345555,"MEAN_MOTION_DDOT":0},{"OBJECT_NAME":"STARLINK-36323","OBJECT_ID":"2026-054AD","EPOCH":"2026-04-05T06:00:02.000160","MEAN_MOTION":15.75212952,"ECCENTRICITY":0.00011909,"INCLINATION":53.1595,"RA_OF_ASC_NODE":179.372,"ARG_OF_PERICENTER":79.6384,"MEAN_ANOMALY":46.617,"EPHEMERIS_TYPE":0,"CLASSIFICATION_TYPE":"U","NORAD_CAT_ID":68259,"ELEMENT_SET_NO":999,"REV_AT_EPOCH":422,"BSTAR":0.00027583596,"MEAN_MOTION_DOT":0.00041804,"MEAN_MOTION_DDOT":0},{"OBJECT_NAME":"STARLINK-37056","OBJECT_ID":"2026-054AE","EPOCH":"2026-04-05T05:21:36.128448","MEAN_MOTION":15.80999181,"ECCENTRICITY":0.00016209,"INCLINATION":53.1581,"RA_OF_ASC_NODE":179.4524,"ARG_OF_PERICENTER":99.6989,"MEAN_ANOMALY":260.4216,"EPHEMERIS_TYPE":0,"CLASSIFICATION_TYPE":"U","NORAD_CAT_ID":68260,"ELEMENT_SET_NO":999,"REV_AT_EPOCH":297,"BSTAR":0.0018286365,"MEAN_MOTION_DOT":0.00378688,"MEAN_MOTION_DDOT":0}]
