STARLINK-36247          
1 68245U 26054P   26095.23533997  .00218687  00000+0  10805-2 0  9992
2 68245  53.1585 179.5341 0000855  53.1070 307.0031 15.80935985  2973
STARLINK-37043          
1 68246U 26054Q   26095.23383564  .00220819  00000+0  10906-2 0  9998
2 68246  53.1587 179.5243 0001205  67.9537 292.1613 15.80939515  2971
STARLINK-37044          
1 68247U 26054R   26093.65262721 -.00125387  00000+0 -65001-3 0  9997
2 68247  53.1589 187.4393 0002044  60.6198 299.5029 15.80565943  2728
STARLINK-36997          
1 68248U 26054S   26095.25958213  .00215300  00000+0  13696-2 0  9999
2 68248  53.1589 179.6948 0001630  63.7194 296.3994 15.75298507  2974
STARLINK-37141          
1 68249U 26054T   26095.24596255  .00188712  00000+0  12055-2 0  9997
2 68249  53.1580 179.6046 0001208  95.1356 264.9803 15.75285187  2975
STARLINK-37087          
1 68250U 26054U   26095.25082801  .00218753  00000+0  13903-2 0  9999
2 68250  53.1578 179.6367 0001382  42.8866 317.2262 15.75310092  2973
STARLINK-36274          
1 68251U 26054V   26095.25536523  .00219335  00000+0  13932-2 0  9994
2 68251  53.1585 179.6669 0001302 124.2137 235.9007 15.75320993  2979
STARLINK-37085          
1 68252U 26054W   26095.22933660  .00227882  00000+0  11242-2 0  9993
2 68252  53.1589 179.4930 0000999 104.0766 256.0368 15.80943652  2971
STARLINK-37086          
1 68253U 26054X   26095.22858958  .00277701  00000+0  13618-2 0  9994
2 68253  53.1588 179.4889 0001135 117.6053 242.5085 15.80935742  2973
STARLINK-37084          
1 68254U 26054Y   26095.16386980  .00315309  00000+0  15395-2 0  9990
2 68254  53.1588 179.7955 0002705  23.0890 337.0254 15.80927469  2968
STARLINK-37075          
1 68255U 26054Z   26095.22782773  .00320643  00000+0  15685-2 0  9997
2 68255  53.1587 179.4836 0001160  84.2383 275.8772 15.80872727  2974
STARLINK-36333          
1 68256U 26054AA  26095.16311606  .00309453  00000+0  15111-2 0  9994
2 68256  53.1586 179.7904 0001948  22.9268 337.1842 15.80941554  2962
STARLINK-36745          
1 68257U 26054AB  26095.24628964  .00216630  00000+0  13769-2 0  9993
2 68257  53.1579 179.6059 0001985  37.1260 322.9897 15.75313646  2978
STARLINK-36890          
1 68258U 26054AC  26095.22408535  .00345555  00000+0  16786-2 0  9993
2 68258  53.1586 179.4580 0001067  78.9151 281.1992 15.80957165  2975
STARLINK-36323          
1 68259U 26054AD  26095.25002315  .00041804  00000+0  27584-3 0  9992
2 68259  53.1595 179.3720 0001190  79.6384  46.6170 15.75212952  4228
STARLINK-37056          
1 68260U 26054AE  26095.22333482  .00378688  00000+0  18286-2 0  9994
2 68260  53.1581 179.4524 0001620  99.6989 260.4216 15.80999181  2978
